GSAT0225 (GALILEO 29)   
1 59598U 24079A   26187.46658044 -.00000001  00000+0  00000+0 0  9999
2 59598  55.1299 100.5421 0001024 304.6843 233.1982  1.70473925 13647
GSAT0227 (GALILEO 30)   
1 59600U 24079C   26187.94680255 -.00000003  00000+0  00000+0 0  9997
2 59600  55.1260 100.5264 0002635  63.1115 296.9335  1.70473885 13703
GSAT0232 (GALILEO 32)   
1 61182U 24167A   26188.16182551  .00000080  00000+0  00000+0 0  9998
2 61182  55.1811 220.7661 0006486 230.3460 117.2781  1.70474080 11210
GSAT0226 (GALILEO 31)   
1 61183U 24167B   26187.44193446  .00000078  00000+0  00000+0 0  9991
2 61183  55.1797 220.7927 0003116 233.2666 123.8786  1.70474095 11175
BEIDOU-3 M25            
1 61186U 24168B   26187.79219897 -.00000062  00000+0  00000+0 0  9996
2 61186  54.4550 301.5620 0003279 293.2796  68.8460  1.86230068 12158
BEIDOU-3 M27            
1 61187U 24168C   26187.57446904 -.00000062  00000+0  00000+0 0  9994
2 61187  54.4506 301.5523 0001069  47.5868 303.5952  1.86230146  9616
NAVSTAR 83 (USA 440)    
1 62339U 24242A   26180.81572751 -.00000094  00000+0  00000+0 0  9992
2 62339  54.8437 333.6698 0017626   4.4449   3.3802  2.00572141 11517
QZS-6 (MICHIBIKI-6)     
1 62876U 25023A   26188.09164389 -.00000218  00000+0  00000+0 0  9996
2 62876   0.0332 294.0570 0001929 189.9889 284.5290  1.00269770  5141
COSMOS 2584 [GLONASS-K2]
1 63130U 25042A   26185.50280755 -.00000010  00000+0  00000+0 0  9990
2 63130  65.0947  72.2135 0006059 222.1818 137.8396  2.13103855 10411
NAVSTAR 84 (USA 545)    
1 64202U 25116A   26186.28378066 -.00000058  00000+0  00000+0 0  9994
2 64202  55.2485  30.4032 0008335 339.8111 199.4440  2.00574675  8232
COSMOS 2596 [GLONASS-K1]
1 65590U 25206B   26185.11455839 -.00000045  00000+0  00000+0 0  9996
2 65590  64.6242 314.3970 0011142 309.2417 229.0730  2.13100941  6272
GSAT0233 (GALILEO 33)   
1 67160U 25302A   26188.14322388 -.00000003  00000+0  00000+0 0  9990
2 67160  54.3464 101.5632 0000869 177.6820 346.3685  1.70473948  3461
GSAT0234 (GALILEO 34)   
1 67162U 25302C   26184.94180101 -.00000003  00000+0  00000+0 0  9991
2 67162  54.3462 101.6534 0002335 315.3055 224.0559  1.70474143  3464
NAVSTAR 85 (USA 581)    
1 67588U 26017A   26187.14267316 -.00000014  00000+0  00000+0 0  9998
2 67588  55.0999  87.9946 0021543 259.3193 100.4784  2.00570734431991
NAVSTAR 86 (USA 585)    
1 68791U 26087A   26186.85772806  .00000090  00000+0  00000+0 0  9997
2 68791  54.9625 207.0496 0020603 106.7291 252.9529  2.00571896  1204
